0 COSMOS 2251 DEB
1 37341U 93036BLH 13283.99011696  .00013956  00000-0  25775-2 0  3184
2 37341 074.0000 025.4624 0054998 222.4640 255.6708 14.64481529212236
0 COSMOS 2251 DEB
1 37341U 93036BLH 13285.27139823  .00011373  00000-0  21011-2 0  3191
2 37341 074.0001 022.9940 0054940 219.8056 170.7003 14.64512101212425
0 COSMOS 2251 DEB
1 37341U 93036BLH 13287.68515652  .00015521  00000-0  28606-2 0  3204
2 37341 074.0008 018.3431 0054774 214.8486 296.5682 14.64563193212789
0 COSMOS 2251 DEB
1 37341U 93036BLH 13288.90834610  .00016688  00000-0  30719-2 0  3212
2 37341 074.0009 015.9865 0054717 212.4100 265.6366 14.64605510212953
0 COSMOS 2251 DEB
1 37341U 93036BLH 13289.93357903  .00014646  00000-0  26961-2 0  3228
2 37341 074.0016 014.0112 0054654 210.2329 271.2622 14.64630134213101
0 COSMOS 2251 DEB
1 37341U 93036BLH 13292.67169662  .00013170  00000-0  24224-2 0  3238
2 37341 074.0004 008.7361 0054250 204.4193 308.6907 14.64700522213515
0 COSMOS 2251 DEB
1 37341U 93036BLH 13295.87595142  .00014859  00000-0  27270-2 0  3249
2 37341 073.9991 002.5614 0054288 198.0229 284.3835 14.64775777213974
